{
  "type": "FeatureCollection",
  "features": [
    {
      "type": "Feature",
      "properties": {
        "norad_id": 33901,
        "name": "COSMOS 2251 DEB",
        "group": "cosmos-2251-debris",
        "lat": 27.652329541892254,
        "lon": -171.51288021316756,
        "alt_km": 491.3951322916373,
        "timestamp": "2025-12-27T20:30:59.672862+00:00",
        "meta_object_name": "COSMOS 2251 DEB",
        "meta_object_id": "1993-036DE",
        "meta_epoch": "2025-12-27T11:56:36.446784",
        "meta_mean_motion": 15.17502519,
        "meta_eccentricity": 0.0029739,
        "meta_inclination": 73.7742,
        "meta_ra_of_asc_node": 18.0213,
        "meta_arg_of_pericenter": 146.7552,
        "meta_mean_anomaly": 213.5519,
        "meta_ephemeris_type": 0,
        "meta_classification_type": "U",
        "meta_norad_cat_id": 33901,
        "meta_element_set_no": 999,
        "meta_rev_at_epoch": 89737,
        "meta_bstar": 0.0027764,
        "meta_mean_motion_dot": 0.00056707,
        "meta_mean_motion_ddot": 0,
        "tle_line1": "1 33901U 93036DE  25361.49764406  .00056707  00000+0  27764-2 0  9996",
        "tle_line2": "2 33901  73.7742  18.0213 0029739 146.7552 213.5519 15.17502519897379"
      },
      "geometry": {
        "type": "Point",
        "coordinates": [
          -171.51288021316756,
          27.652329541892254
        ]
      }
    },
    {
      "type": "Feature",
      "properties": {
        "norad_id": 33905,
        "name": "COSMOS 2251 DEB",
        "group": "cosmos-2251-debris",
        "lat": 50.24911119875801,
        "lon": 88.32929263970647,
        "alt_km": 740.8148125410435,
        "timestamp": "2025-12-27T20:30:59.672872+00:00",
        "meta_object_name": "COSMOS 2251 DEB",
        "meta_object_id": "1993-036DJ",
        "meta_epoch": "2025-12-27T05:25:55.197120",
        "meta_mean_motion": 14.35434356,
        "meta_eccentricity": 0.0058014,
        "meta_inclination": 73.8868,
        "meta_ra_of_asc_node": 289.8303,
        "meta_arg_of_pericenter": 176.1873,
        "meta_mean_anomaly": 304.4335,
        "meta_ephemeris_type": 0,
        "meta_classification_type": "U",
        "meta_norad_cat_id": 33905,
        "meta_element_set_no": 999,
        "meta_rev_at_epoch": 87895,
        "meta_bstar": 0.0006153,
        "meta_mean_motion_dot": 1.775e-05,
        "meta_mean_motion_ddot": 0,
        "tle_line1": "1 33905U 93036DJ  25361.22633330  .00001775  00000+0  61530-3 0  9997",
        "tle_line2": "2 33905  73.8868 289.8303 0058014 176.1873 304.4335 14.35434356878953"
      },
      "geometry": {
        "type": "Point",
        "coordinates": [
          88.32929263970647,
          50.24911119875801
        ]
      }
    },
    {
      "type": "Feature",
      "properties": {
        "norad_id": 33906,
        "name": "COSMOS 2251 DEB",
        "group": "cosmos-2251-debris",
        "lat": 58.68862283639153,
        "lon": 84.66232116692183,
        "alt_km": 719.829208504033,
        "timestamp": "2025-12-27T20:30:59.672882+00:00",
        "meta_object_name": "COSMOS 2251 DEB",
        "meta_object_id": "1993-036DK",
        "meta_epoch": "2025-12-27T04:01:22.560672",
        "meta_mean_motion": 14.57333869,
        "meta_eccentricity": 0.00369198,
        "meta_inclination": 74.0299,
        "meta_ra_of_asc_node": 294.0533,
        "meta_arg_of_pericenter": 321.421,
        "meta_mean_anomaly": 151.606,
        "meta_ephemeris_type": 0,
        "meta_classification_type": "U",
        "meta_norad_cat_id": 33906,
        "meta_element_set_no": 999,
        "meta_rev_at_epoch": 88218,
        "meta_bstar": 0.0022406267,
        "meta_mean_motion_dot": 0.00010228,
        "meta_mean_motion_ddot": 0,
        "tle_line1": "1 33906U 93036DK  25361.16762223  .00010228  00000+0  22406-2 0  9996",
        "tle_line2": "2 33906  74.0299 294.0533 0036919 321.4210 151.6060 14.57333869882186"
      },
      "geometry": {
        "type": "Point",
        "coordinates": [
          84.66232116692183,
          58.68862283639153
        ]
      }
    },
    {
      "type": "Feature",
      "properties": {
        "norad_id": 33907,
        "name": "COSMOS 2251 DEB",
        "group": "cosmos-2251-debris",
        "lat": 72.14639751158025,
        "lon": 68.65411446872672,
        "alt_km": 709.136448815304,
        "timestamp": "2025-12-27T20:30:59.672892+00:00",
        "meta_object_name": "COSMOS 2251 DEB",
        "meta_object_id": "1993-036DL",
        "meta_epoch": "2025-12-27T10:37:22.476000",
        "meta_mean_motion": 14.30649677,
        "meta_eccentricity": 0.0112004,
        "meta_inclination": 74.0707,
        "meta_ra_of_asc_node": 6.9448,
        "meta_arg_of_pericenter": 58.0361,
        "meta_mean_anomaly": 60.9892,
        "meta_ephemeris_type": 0,
        "meta_classification_type": "U",
        "meta_norad_cat_id": 33907,
        "meta_element_set_no": 999,
        "meta_rev_at_epoch": 86790,
        "meta_bstar": 0.0023688,
        "meta_mean_motion_dot": 6.609e-05,
        "meta_mean_motion_ddot": 0,
        "tle_line1": "1 33907U 93036DL  25361.44262125  .00006609  00000+0  23688-2 0  9995",
        "tle_line2": "2 33907  74.0707   6.9448 0112004  58.0361  60.9892 14.30649677867902"
      },
      "geometry": {
        "type": "Point",
        "coordinates": [
          68.65411446872672,
          72.14639751158025
        ]
      }
    },
    {
      "type": "Feature",
      "properties": {
        "norad_id": 33908,
        "name": "COSMOS 2251 DEB",
        "group": "cosmos-2251-debris",
        "lat": -61.07072166944133,
        "lon": 147.29449321596564,
        "alt_km": 884.2976636143103,
        "timestamp": "2025-12-27T20:30:59.672902+00:00",
        "meta_object_name": "COSMOS 2251 DEB",
        "meta_object_id": "1993-036DM",
        "meta_epoch": "2025-12-27T12:18:24.128928",
        "meta_mean_motion": 14.07474994,
        "meta_eccentricity": 0.022202,
        "meta_inclination": 73.8373,
        "meta_ra_of_asc_node": 179.5499,
        "meta_arg_of_pericenter": 200.3841,
        "meta_mean_anomaly": 158.8333,
        "meta_ephemeris_type": 0,
        "meta_classification_type": "U",
        "meta_norad_cat_id": 33908,
        "meta_element_set_no": 999,
        "meta_rev_at_epoch": 85681,
        "meta_bstar": 0.0032502,
        "meta_mean_motion_dot": 6.835e-05,
        "meta_mean_motion_ddot": 0,
        "tle_line1": "1 33908U 93036DM  25361.51277927  .00006835  00000+0  32502-2 0  9996",
        "tle_line2": "2 33908  73.8373 179.5499 0222020 200.3841 158.8333 14.07474994856814"
      },
      "geometry": {
        "type": "Point",
        "coordinates": [
          147.29449321596564,
          -61.07072166944133
        ]
      }
    },
    {
      "type": "Feature",
      "properties": {
        "norad_id": 33911,
        "name": "COSMOS 2251 DEB",
        "group": "cosmos-2251-debris",
        "lat": 40.34109499627106,
        "lon": -61.60641766519274,
        "alt_km": 638.3533970717044,
        "timestamp": "2025-12-27T20:30:59.672913+00:00",
        "meta_object_name": "COSMOS 2251 DEB",
        "meta_object_id": "1993-036DQ",
        "meta_epoch": "2025-12-27T10:24:57.542112",
        "meta_mean_motion": 14.7524494,
        "meta_eccentricity": 0.0014078,
        "meta_inclination": 74.0901,
        "meta_ra_of_asc_node": 133.2326,
        "meta_arg_of_pericenter": 63.0261,
        "meta_mean_anomaly": 0.2239,
        "meta_ephemeris_type": 0,
        "meta_classification_type": "U",
        "meta_norad_cat_id": 33911,
        "meta_element_set_no": 999,
        "meta_rev_at_epoch": 88861,
        "meta_bstar": 0.0023969,
        "meta_mean_motion_dot": 0.00016251,
        "meta_mean_motion_ddot": 0,
        "tle_line1": "1 33911U 93036DQ  25361.43399933  .00016251  00000+0  23969-2 0  9993",
        "tle_line2": "2 33911  74.0901 133.2326 0014078  63.0261   0.2239 14.75244940888615"
      },
      "geometry": {
        "type": "Point",
        "coordinates": [
          -61.60641766519274,
          40.34109499627106
        ]
      }
    },
    {
      "type": "Feature",
      "properties": {
        "norad_id": 33912,
        "name": "COSMOS 2251 DEB",
        "group": "cosmos-2251-debris",
        "lat": -27.22112638415004,
        "lon": -10.28065398479196,
        "alt_km": 717.8118533213164,
        "timestamp": "2025-12-27T20:30:59.672923+00:00",
        "meta_object_name": "COSMOS 2251 DEB",
        "meta_object_id": "1993-036DR",
        "meta_epoch": "2025-12-27T11:35:13.214112",
        "meta_mean_motion": 14.5198427,
        "meta_eccentricity": 0.001127,
        "meta_inclination": 74.0335,
        "meta_ra_of_asc_node": 161.9512,
        "meta_arg_of_pericenter": 241.4777,
        "meta_mean_anomaly": 182.848,
        "meta_ephemeris_type": 0,
        "meta_classification_type": "U",
        "meta_norad_cat_id": 33912,
        "meta_element_set_no": 999,
        "meta_rev_at_epoch": 88647,
        "meta_bstar": 0.00098108,
        "meta_mean_motion_dot": 3.94e-05,
        "meta_mean_motion_ddot": 0,
        "tle_line1": "1 33912U 93036DR  25361.48279183  .00003940  00000+0  98108-3 0  9992",
        "tle_line2": "2 33912  74.0335 161.9512 0011270 241.4777 182.8480 14.51984270886475"
      },
      "geometry": {
        "type": "Point",
        "coordinates": [
          -10.28065398479196,
          -27.22112638415004
        ]
      }
    }
  ]
}